{
  "norad_id": 57449,
  "name": "STARLINK-30225",
  "history": [
    {
      "epoch": "2026-03-28T20:00:01.999872Z",
      "apogee_km": 489.57085518181793,
      "perigee_km": 486.6881218592771,
      "latitude_deg": -29.880226015903023,
      "longitude_deg": -9.145702392351794,
      "height_km": 495.05257643642034,
      "semi_major_axis_km": 6866.266488520547,
      "eccentricity": 0.00020992,
      "inclination_deg": 43.0006,
      "raan_deg": 154.8983,
      "arg_perigee_deg": 270.1384,
      "mean_anomaly_deg": 43.2438,
      "mean_motion_rev_day": 15.25884915
    },
    {
      "epoch": "2026-03-29T04:00:01.999584Z",
      "apogee_km": 488.7128264413268,
      "perigee_km": 485.7922897233184,
      "latitude_deg": -9.335601989961626,
      "longitude_deg": -103.65942894148515,
      "height_km": 488.3610247951693,
      "semi_major_axis_km": 6865.389558082322,
      "eccentricity": 0.0002127,
      "inclination_deg": 43.0004,
      "raan_deg": 153.0226,
      "arg_perigee_deg": 270.1794,
      "mean_anomaly_deg": 76.2009,
      "mean_motion_rev_day": 15.26177281
    },
    {
      "epoch": "2026-03-30T04:00:01.999584Z",
      "apogee_km": 486.6332061523044,
      "perigee_km": 485.0009578716026,
      "latitude_deg": 43.119577057402445,
      "longitude_deg": -13.182985671211757,
      "height_km": 489.7768919974499,
      "semi_major_axis_km": 6863.954082011954,
      "eccentricity": 0.0001189,
      "inclination_deg": 43.0005,
      "raan_deg": 147.3864,
      "arg_perigee_deg": 269.3136,
      "mean_anomaly_deg": 178.4943,
      "mean_motion_rev_day": 15.26656066
    },
    {
      "epoch": "2026-03-30T06:00:02.000160Z",
      "apogee_km": 486.5685553430012,
      "perigee_km": 484.90983102215796,
      "latitude_deg": -4.397778525262375,
      "longitude_deg": 53.96881640759613,
      "height_km": 486.17690808242196,
      "semi_major_axis_km": 6863.876193182579,
      "eccentricity": 0.00012083,
      "inclination_deg": 43.0006,
      "raan_deg": 146.9172,
      "arg_perigee_deg": 275.3833,
      "mean_anomaly_deg": 270.9632,
      "mean_motion_rev_day": 15.26682052
    },
    {
      "epoch": "2026-03-30T14:00:03.000384Z",
      "apogee_km": 486.75194335340893,
      "perigee_km": 484.6146869836721,
      "latitude_deg": -26.524470036917617,
      "longitude_deg": -40.78866219034972,
      "height_km": 492.0017976754344,
      "semi_major_axis_km": 6863.82031516854,
      "eccentricity": 0.00015569,
      "inclination_deg": 43.0007,
      "raan_deg": 145.038,
      "arg_perigee_deg": 289.4588,
      "mean_anomaly_deg": 291.1663,
      "mean_motion_rev_day": 15.26700695
    },
    {
      "epoch": "2026-03-30T22:00:00.999936Z",
      "apogee_km": 486.62634595268264,
      "perigee_km": 484.47993277230125,
      "latitude_deg": -41.302479023353996,
      "longitude_deg": -125.60232843353197,
      "height_km": 497.13935630177525,
      "semi_major_axis_km": 6863.690139362491,
      "eccentricity": 0.00015636,
      "inclination_deg": 43.0007,
      "raan_deg": 143.1558,
      "arg_perigee_deg": 276.3569,
      "mean_anomaly_deg": 338.3648,
      "mean_motion_rev_day": 15.26744128
    }
  ]
}